#dP2024  6 26  0  0  0.00000000      96 __u+U IGS20 FIT  IAC
## 2320 259200.00000000   900.00000000 60487 0.0000000000000
+   54   G02G03G04G05G06G07G08G09G10G11G12G13G14G15G16G17G18
+        G19G20G21G22G23G24G25G26G27G28G29G30G31G32R01R02R03
+        R04R05R07R08R09R11R12R13R14R15R16R17R18R19R20R21R22
+        R24R25R26  0  0  0  0  0  0  0  0  0  0  0  0  0  0
+          0  0  0  0  0  0  0  0  0  0  0  0  0  0  0  0  0
++         6  6  6  6  5  6  6  6  9  5  6  6  6  6  5  6  7
++         6  7  5  7  7  8  6  6  6  4  6  6  5  6  7  7  7
++         6  7  7  7  6  7  7  6  5  6  6  5  5  7  8  7  6
++         6  7  6  0  0  0  0  0  0  0  0  0  0  0  0  0  0
++         0  0  0  0  0  0  0  0  0  0  0  0  0  0  0  0  0
%c M  cc GPS ccc cccc cccc cccc cccc ccccc ccccc ccccc ccccc
%c cc cc ccc ccc cccc cccc cccc cccc ccccc ccccc ccccc ccccc
%f  0.0000000  0.000000000  0.00000000000  0.000000000000000
%f  0.0000000  0.000000000  0.00000000000  0.000000000000000
%i    0    0    0    0      0      0      0      0         0
%i    0    0    0    0      0      0      0      0         0
/* INFORMATION & ANALYSIS CENTER (IAC)      ULTRA-RAPID DATA
/* S/V CLOCKS ARE ALIGNED TO GNSS TIME                      
/* G:C1WC2W R:C1PC2P E:C1XC5X C:C2IC6I J:C1CC2S             
/* PCV:IGS20_2317 OL/AL:FES2004  NONE     YN ORB:CoN CLK:CoN
*  2024 06 26 23  0  0.00000000
PG02 -13896.783756  12764.986437  19044.505625   -410.244775
PG03 -22415.523952  12977.506673  -5745.486604    431.994835
PG04 -14565.858961   6849.642489 -21134.985170    391.617870
PG05  24452.953949  -3686.713928  -9984.735788   -177.717254
PG06   5966.792806  21598.318169 -14114.320801    195.927293
PG07  -5565.210882  25516.789474  -2627.799020    -82.923347
PG08 -21673.598021  -2331.054371  15350.322250    248.344023
PG09  -2796.712817  16222.699831 -20915.833806    250.175731
PG10  -5713.345534 -13641.139979  22270.030428    -51.872366
PG11  13085.116360   9325.110977 -21136.458309   -693.651482
PG12  24115.467724 -10514.083091  -3731.651178   -517.438708
PG13  21323.461832  11942.862576  10473.797659    660.659080
PG14   1367.520148  15873.458910  21264.907397    434.946009
PG15  21741.982156   -337.288623  14873.827941    174.560765
PG16 -23806.781157  -1837.924264 -12422.420572   -253.156254
PG17   9539.647951  20931.907363  13553.315774    688.263138
PG18   5844.975208 -25676.475175  -2443.836820   -629.868547
PG19  16596.750928  20477.944037   4548.471753    502.089944
PG20  19620.637677   2450.299398 -17596.223651    373.399432
PG21 -15107.855177   6223.837673  21163.381603    112.832326
PG22   9434.395687  12912.532243  21583.321016    -32.368363
PG23   7381.401925 -17041.652506  18931.000449    259.880561
PG24  14469.563765 -10897.524104  18866.938932   -480.169484
PG25  16942.636570 -16538.244273 -12108.433268    497.861225
PG26 -14733.529066  -9468.782975 -20209.051106    130.270690
PG27 -22923.629835 -12204.370159   6254.144747    -29.516689
PG28  -5766.646818 -23075.818124 -11829.835738   -306.282188
PG29   7004.094285 -13691.102862 -21691.188368   -592.391757
PG30   1899.195163  25326.595942   7433.880659   -367.696403
PG31 -11738.642428 -13795.040825 -19509.869227   -227.163412
PG32 -12851.928647 -20267.859920  11809.047850   -614.826495
PR01 -20310.209206   2010.858319 -15289.937593     89.603817
PR02  -5276.060693   9558.297989 -23011.485673    -23.449378
PR03  13154.956058  12648.340039 -17747.908213    102.803263
PR04  23727.867902   8853.946131  -2965.118481    242.901638
PR05  21678.833505    345.739523  13432.482837    133.693087
PR07 -13847.164742 -12675.204727  17335.619995     85.422265
PR08 -23859.158276  -8630.600979   2849.755295     -5.362404
PR09  13538.194823 -19792.759681  -8796.788636    194.434347
PR11 -12671.533730  -2308.312965 -21998.889027     20.115360
PR12 -19981.162282  13117.163719  -8892.023870     41.777814
PR13 -15414.380312  19293.071624   6383.596728    -48.727206
PR14    -65.930499  14341.962982  21105.641099     26.633351
PR15  13845.631512   1079.930738  21422.950378     78.444908
PR16  19904.226012 -13088.904852   9188.305939     26.838067
PR17   7267.667736  24195.655098  -3692.197711     99.400293
PR18  11362.953271  13982.305900 -18026.297677    148.996634
PR19  10364.706061  -1165.283096 -23284.206171   -281.747598
PR20   2659.731844 -20986.779283 -14277.916466   -115.156164
PR21  -6896.139371 -24310.819747   3351.084803   -112.622846
PR22 -11476.184269 -13145.000153  18631.763063     97.416518
PR24  -1739.592335  21449.933043  13722.474313    -61.451029
PR25  -6490.541176 -24332.206011   3986.246337    -87.813857
PR26 -23499.807889  -8986.707776   4145.058413     -5.425473
*  2024 06 26 23 15  0.00000000
PG02 -13952.929715  10593.378385  20350.205216   -410.238160
PG03 -22928.020536  12993.277883  -2891.138548    432.010316
PG04 -16379.752409   5328.337664 -20238.881803    391.625044
PG05  23410.789967  -2964.356204 -12454.724801   -177.718744
PG06   5634.844574  23056.421592 -11747.196328    195.907572
PG07  -5828.516049  24958.104474  -5438.123803    -82.915248
PG08 -22923.729973  -3407.789067  13238.632838    248.359747
PG09  -4809.973579  14891.290146 -21538.038831    250.188941
PG10  -3424.929269 -14617.555161  22089.603400    -51.880415
PG11  12642.712352  11653.694061 -20236.937461   -693.658294
PG12  24421.122378 -10355.644550   -886.068548   -517.441940
PG13  21953.718553  12827.397242   7874.235581    660.661212
PG14   -878.542257  16713.835305  20616.774753    434.954164
PG15  23097.002475    647.817934  12757.879594    174.564487
PG16 -22453.517374  -2468.891139 -14651.076775   -253.146481
PG17   8188.496882  20033.266417  15705.948222    688.257537
PG18   6015.242230 -25204.906240  -5293.153237   -629.872759
PG19  15952.988970  20161.549456   7288.469545    502.094636
PG20  17947.205744   3757.712483 -19096.530959    373.398886
PG21 -15155.448909   3838.550567  21791.176311    112.830033
PG22   7166.405120  13719.965516  21987.095086    -32.372784
PG23   9305.965950 -17814.486188  17280.480876    259.888730
PG24  14594.857995  -8571.902816  19953.626823   -480.171460
PG25  18149.063007 -16811.093558  -9645.406712    497.861676
PG26 -12719.949692 -10639.686362 -20952.446680    130.264893
PG27 -23269.833398 -12722.518606   3492.471875    -29.517699
PG28  -5451.626897 -24264.820262  -9335.201981   -306.296979
PG29   8906.433635 -12093.246149 -21953.005463   -592.390035
PG30   1492.776467  25972.776731   4732.150026   -367.690757
PG31 -11309.618835 -15881.200638 -18074.877393   -227.163065
PG32 -11571.469022 -19574.462101  14102.699688   -614.825092
PR01 -22021.251077   1726.960849 -12742.924285     89.605181
PR02  -8002.231780   8832.068081 -22515.983543    -23.449321
PR03  10937.652728  11963.524034 -19627.960969    102.804428
PR04  23229.614179   8533.592321  -6130.160226    242.902744
PR05  23152.774335    599.006552  10677.694590    133.693171
PR07 -11699.429323 -11994.007489  19292.677874     85.422868
PR08 -23381.345767  -8333.182075   6007.667247     -5.362792
PR09  14085.674313 -20513.316763  -5784.952204    194.436458
PR11 -10721.890260  -4267.606303 -22731.653636     20.114552
PR12 -19000.703290  12289.129210 -11753.110834     41.778231
PR13 -15736.139238  19809.734060   3251.705349    -48.727173
PR14  -1774.455006  16181.694404  19647.399995     26.633583
PR15  11925.264495   2972.160523  22377.933235     78.444039
PR16  18892.735480 -12250.437471  12038.669699     26.838352
PR17   7519.580028  24395.516071   -476.207872     99.403617
PR18  12006.065069  15979.893790 -15811.019051    148.998077
PR19  10995.292204   1621.120547 -22966.104461   -281.749347
PR20   2901.074140 -19081.245466 -16696.177998   -115.157130
PR21  -7142.495551 -24470.436638    120.672887   -112.626143
PR22 -12044.861234 -15238.261062  16561.723455     97.411684
PR24  -2094.558292  19638.774354  16166.691756    -61.452179
PR25  -6696.220946 -24588.489970    789.923313    -87.841024
PR26 -22860.424067  -8655.973322   7266.766198     -5.424816
EOF
